Id,StockistName,PartyName,Address1,Address2,City,Pincode
1,ARIHANT CHEMIST LLP,THE HEALTH FOREVER,"SHOP NO.6 & 105,NIYATI ETERNITY",UNDRI,PUNE,
2,ARIHANT CHEMIST LLP,VASU MED GEN STORES,4KOTHRUD,27AAIPD2088H1ZQ,4KOTHRUD,
3,ARIHANT CHEMIST LLP,WELLCARE PHARMA,SH.NO. 7/8/9&10 GR.FR. T SQUARE BLD,TUPE PATIL RD SADW SATRA NALI,PUNE,
4,KUNDAN MEDICO,Company-Party wise Sale for GLAXO from 01/03/2020 to43921,0,0,0,
5,KUNDAN MEDICO,GEETAMEDICAL & GEN STORES KHED,0,0,0,
6,KUNDAN MEDICO,GOYALMEDICAL & GEN STORES NEHRUNAGAR,0,0,0,
7,KUNDAN MEDICO,JANTAMEDICO KUDALWADI,CHIKHALI,SH.NO-1,0,
8,KUNDAN MEDICO,LAXMIMEDICAL MARUNJI,SHINDE VASTI,0,0,
9,KUNDAN MEDICO,MAHESHMEDICALS LANDEWADI BHOSARI,0,0,0,
10,KUNDAN MEDICO,MARUTI MEDICO,TATHWADE WAKAD,0,,
11,KUNDAN MEDICO,MAULIMEDICAL STORES CHIKHALI,PATIL NAGAR,0,0,
12,KUNDAN MEDICO,METROCHEMIST CHINCHWAD,CHAPHEKAR CHOWK,0,0,
13,KUNDAN MEDICO,MORYAMEDICAL & GEN STORES PIMPRI,0,0,0,
14,KUNDAN MEDICO,NAKSHATRA MEDICAL,PIMPLE GURAV,0,,
15,KUNDAN MEDICO,NIDAANMEDICO CHIKHALISHOP NO.4,HARSHAL COM,0,0,
16,KUNDAN MEDICO,NIRMALMED.& GEN.STORES CHIKHALI,KUDALWADI.PAWARVAS,0,0,
17,KUNDAN MEDICO,NOBLEMEDICO THERGAONPHATA,DANGE CHOWK,0,0,
18,KUNDAN MEDICO,OM MEDICO BORHADEWADIDEHU ALANDI ROAD,0,0,0,
19,KUNDAN MEDICO,OM SAINATH MEDICAL & GEN STORS PURNANAGAR CHIKHALI,0,0,0,
20,KUNDAN MEDICO,PG MEDICAL BHOIRWADI,MAAN,PUNE TAL,0,
21,KUNDAN MEDICO,RAJDEEP MEDICAL STARESGR.FLOOR SARITA APT.KASARWADI,0,0,0,
22,KUNDAN MEDICO,RUDRAMEDICAL & GEN. STORES. MOHANNAGAR,CHINCHWAD.,0,0,
23,KUNDAN MEDICO,S.K. MEDICO KRISHNA NAGAR,CHIKHALI,0,PCMC,
24,KUNDAN MEDICO,SAHILMEDICAL &GEN. STORES NIGDI,0,0,0,
25,KUNDAN MEDICO,SAI MEDICAL & GEN STORES KALEWADI,0,0,0,
26,KUNDAN MEDICO,SAI RAM MED & GEN ST,THERGAON,0,,
27,KUNDAN MEDICO,SANDEEP MEDICAL LADEWADI,BHOSARI,0,PCMC,
28,KUNDAN MEDICO,SHANTIMEDICAL CHIKHALI,MHETRE TAMANE WASTI,0,0,
29,KUNDAN MEDICO,SHIVAMMEDICAL & GEN.STORE KAMSHET,SHIVAJI CHOWK,0,0,
30,KUNDAN MEDICO,SHREEROHINI MED STORES TALEGAON STATION,0,0,0,
31,KUNDAN MEDICO,SHREEWAGHESHWAR MED.STORE PIMPLE GURAV,0,0,0,
32,KUNDAN MEDICO,SIDDHIMEDICAL TALEGAON,DABHADE,0,0,
33,KUNDAN MEDICO,SUYOGMEDICAL & GENRALSTO AJMERA.,0,0,0,
34,KUNDAN MEDICO,SUYOGMEDICALS TALEGAON,0,0,0,
35,KUNDAN MEDICO,VIGHNAHAR MED.& GEN.STORES JADHAVWADI,CHIKHALI,0,0,
36,KUNDAN MEDICO,VIJAYMEDICALS BHOSARI,0,0,0,
37,KUNDAN MEDICO,VIKASMEDICALS KIWALE,0,0,0,
38,KUNDAN MEDICO,VISHALMEDICAL & GEN STORES TALEGAON,0,0,0,
39,KUNDAN MEDICO,MUMBAIPUNE ROAD CHINCHWAD STN,0,0,0,
40,KUNDAN MEDICO,DIVINEPHARMAS SEVADHAM MEDI SEVADHAM HOSPITAL,0,0,0,
41,KUNDAN MEDICO,GURU GAURANGA MEDICO LINK ROAD,CHINCHWADGOAN,0,PCMC,
42,KUNDAN MEDICO,KUMARMEDICALS & GEN STORES NAVI SANGVI.,0,0,0,
43,KUNDAN MEDICO,MEDIZOOP CHEM&DRUGG RAHATANI SAI LUXURIA,0,0,0,
44,KUNDAN MEDICO,MEDWELL BHOSARI,DHAVDE VASTI,0,0,
45,KUNDAN MEDICO,RAVIKALP MEDICAL CHICHWAD TANAJI NAGAR,0,0,0,
46,KUNDAN MEDICO,SADGURU MEDICAL &GEN.STORES CHINCHWAD,WALHEKARWADI,0,0,
47,KUNDAN MEDICO,SHREEMAHALAXMI MEDICAL & GEN AKURDI,0,0,0,
48,KUNDAN MEDICO,SHREEMEDICO JADHAVWADI,CHIKHALI,0,0,
49,KUNDAN MEDICO,SHRIRAM MEDICAL [CASH],PRADHIKARAN [9823747876,"S.NO.26,TRIMURTI HOUSG.SOCIETY PUNE-35 S.NO.26,TRIMURTI HOUSG.SOCIETY",0,
50,KUNDAN MEDICO,SHRUSHTI MED & GEN STO [CASH],"TRIVENI NAGAR, [GOVIND] [D]","SHOP NO 1,GR.FLR,SAI COLONY, PUNE-412114.",0,
51,KUNDAN MEDICO,SINDHUSEVA SAMITI PIMPRI,0,0,0,
52,KUNDAN MEDICO,SURAJMEDICAL GEN STORE TRIVENI NAGAR,0,0,0,
53,KUNDAN MEDICO,DRUG HOUSE DEHUROAD,0,0,0,
54,KUNDAN MEDICO,MORYAMEDICAL CHIKHALIJADHAVWADI,0,0,0,
55,KUNDAN MEDICO,OMKARMEDICALS PIMPRI,0,0,0,
56,KUNDAN MEDICO,MILANMED & GEN STORESSHREE KRISHNA NAGAR,0,0,0,
57,KUNDAN MEDICO,RAHULMEDICAL & GEN STORES BHOSARI,0,0,0,
58,KUNDAN MEDICO,SHREEGAURAV MED & GENSTORES DEHUROAD,0,0,0,
59,KUNDAN MEDICO,DIVINECHEMIST WAKAD,GROUND FLOOR,0,0,
60,KUNDAN MEDICO,SHARDAMEDICO WAKAD KASPATE VASTI,0,0,0,
61,KUNDAN MEDICO,SHREENATH MED & GEN STORES KALEWADI,GULMOHARGARDEN,0,0,
62,KUNDAN MEDICO,YOGESHMEDICAL & GEN.STORES GUJAR NAGAR,THERGAON,0,0,
63,KUNDAN AGENCIES,VIKASMEDICALS KIWALE,0,0,0,
64,KUNDAN AGENCIES,SAI RAM MED & GEN ST,THERGAON,0,,
65,KUNDAN AGENCIES,NEW AKANKSHA MED & GEN [CASH],THERGAON [9850275824] NAGESH,PAWAR-NAGAR                    PUNE-411 033.                  PAWAR-NAGAR,0,
66,KUNDAN AGENCIES,SANT KRUPA MEDICAL [CASH],DEHUGAON.[8605065053][HATALE],"SSHOP NO 8,CT SR NO 4/93233/03 WARD NO 4,NEAR SANT KRUPA OFFI DEHUGAON,PUNE.",0,
67,KUNDAN AGENCIES,SAMARTH MEDICAL & GEN STORES CHINCHWAD,0,0,PCMC,
68,KUNDAN AGENCIES,MANALI MED & GEN STORES [CASH],DEHUGAON [8975764681][SHIVANI],MALVADI                                                       MALVADI,0,
69,KUNDAN AGENCIES,DEVIPRASAD MED & GEN STO [CASH,RUPEENAGAR.[9175429890],"S.NO.22,NEAR SOMESHWER TEMPLE, PUNE-44",0,
70,KUNDAN AGENCIES,OM SAINATH MEDICAL & GEN STORS PURNANAGAR CHIKHALI,0,0,0,
71,KUNDAN AGENCIES,SHRUSHTI MED & GEN STO [CASH],"TRIVENI NAGAR, [GOVIND] [D]","SHOP NO 1,GR.FLR,SAI COLONY, PUNE-412114.",0,
72,KUNDAN AGENCIES,MEGA MEDICAL,HINJAWADI,0,,
73,KUNDAN AGENCIES,SHYAMA MEDICO,DEHUGAON,ALANDI ROAD,PCMC,
74,KUNDAN AGENCIES,VIGHNAHAR MED.& GEN.STORES JADHAVWADI,CHIKHALI,0,0,
75,KUNDAN AGENCIES,SHREE MEDICO & GEN STORES HINJAWADI,BENDRE VASTI,0,PCMC,
76,KUNDAN AGENCIES,SAI SAMARTH & GEN STO[CASH],TALUKA MULSHI.[NOOR],SHOP N 1 AT POST JAMBE MILKAT NO 407 SERVE NO 26/1,0,
77,KUNDAN AGENCIES,KAUSAI MEDICALS KUDALWADI,CHIKHALI.,0,PCMC,
78,KUNDAN AGENCIES,MARUTI MEDICO,TATHWADE WAKAD,0,,
79,KUNDAN AGENCIES,SHREE KARTIK MEDICO,GURUDWARA ROAD,WALHEKARWADI,,
80,KUNDAN AGENCIES,SANDEEP MEDICAL LADEWADI,BHOSARI,0,PCMC,
81,KUNDAN AGENCIES,SIDDHIVINAYAK MED & GEN STORE WALHEKARWADI,SHREEYASH APT,0,PCMC,
82,KUNDAN AGENCIES,SHIVAI MEDICAL,CHIKHLI,RAMDASNAGAR,,
83,KUNDAN AGENCIES,DIVINEPHARMAS SEVADHAM MEDI SEVADHAM HOSPITAL,0,0,0,
84,KUNDAN AGENCIES,HEALTH LIFE MEDICAL,NAKATE VASTI,RAHATANI,PCMC,
85,KUNDAN AGENCIES,RAJDEEP MEDICAL STARESGR.FLOOR SARITA APT.KASARWADI,0,0,0,
86,KUNDAN AGENCIES,DP MEDICARE HINJAWADI,NR.SUNRISE HOTEL,0,PCMC,
87,KUNDAN AGENCIES,SHRAVANI MEDICAL HINJAWADI,MARUNJI RD,NR,PCMC,
88,KUNDAN AGENCIES,REVIVE MEDICO & GEN STORES CHINCHWAD,GANESH CORNER,SH.N.3,PCMC,
89,KUNDAN AGENCIES,RAJ MEDICALS TRIVENI NAGAR,TALAWADE,0,PCMC,
90,KUNDAN AGENCIES,PARSHWANATH MED [ST.DIS],TALEGAON [NANDU] [L],0,0,
91,KUNDAN AGENCIES,NAVACHAITANYA MEDICO [CASH],MOSHI   [DEEPAK][A],0,0,
92,KUNDAN AGENCIES,MEDI PHARM CHEMIST & DRUGIST SHAHU NAGAR,CHINCHWAD,0,PCMC,
93,KUNDAN AGENCIES,JANSEVA MEDICAL MORE WASTI,CHIKHALI (SAYYD),0,PCMC,
94,CHANDAN PHARMACEUTICALS,DURGA MEDICAL,BAVDHAN,N/A,BAVDHAN,
95,CHANDAN PHARMACEUTICALS,WELLNESS FOREVER LIFESTYLE,KHARADI,0,Pune,
96,CHANDAN PHARMACEUTICALS,KRISHNA PRABHA MED GEN STORE,SOMAWAR PETH,POONA,SOMAWAR PETH,
97,CHANDAN PHARMACEUTICALS,CHETAN MEDICAL GEN STORE,27BOMPS7020H1ZN,DATTAWADI,DATTAWADI,
98,CHANDAN PHARMACEUTICALS,METRO CHEMIST,BAVDHAN BK DREAMS BELLA,SHOP NO 3 GROUND FLOOR,Pune,
99,CHANDAN PHARMACEUTICALS,GUNJAN MEDICAL & GENERAL STORE,SHOP.NO.3&4.GR.FLR.S.NO.178.PROP.NO.28148,BALAJI HEIGHTS BHOSALE VILLAGE.FURSUNGI.,PUNE,
100,CHANDAN PHARMACEUTICALS,NEW LIFE N CARE MEDICAL,SH.MO. 8 GOLD STAR COM. OPP SHINDE DAIRY FARM,TULJA BHAVANI NAGAR,PUNE,
101,CHANDAN PHARMACEUTICALS,VASU MED GEN STORES,4KOTHRUD,27AAIPD2088H1ZQ,4KOTHRUD,
102,CHANDAN PHARMACEUTICALS,NEW MATOSHREE MEDICALS,URLIKANCHAN,PUNE,URLIKANCHAN,
103,CHANDAN PHARMACEUTICALS,KRUSHNAI MEDICAL,"JANTA VASAHAT,LANE NO.47,","OPP.P.M.C.SCHOOL,PARVATI",PUNE,
104,CHANDAN PHARMACUTICALS,DIVINEPHARMAS SEVADHAM MEDI SEVADHAM HOSPITAL,0,0,0,
105,CHANDAN PHARMACUTICALS,NAVACHAITANYA MEDICO [CASH],MOSHI   [DEEPAK][A],0,0,
106,CHANDAN PHARMACUTICALS,GURUKRIPA MED & GEN STORES THERMAX CHOUK CHINCHWAD,0,0,0,
107,CHANDAN PHARMACUTICALS,MORAYA MEDICAL WAGESHWARWADI CHARHOLI BK,0,0,0,
108,CHANDAN PHARMACUTICALS,MANALI MED & GEN STORES [CASH],DEHUGAON [8975764681][SHIVANI],MALVADI                                                       MALVADI,0,
109,CHANDAN PHARMACUTICALS,MEGA MEDICAL,HINJAWADI,0,,
110,CHANDAN PHARMACUTICALS,SHRIKRUSHNA MEDICAL MAHALUNGE VITHAI NIVAS,0,0,0,
111,CHANDAN PHARMACUTICALS,SANDEEP MEDICAL LADEWADI,BHOSARI,0,PCMC,
112,CHANDAN PHARMACUTICALS,SWAROOP MEDICAL STORES TALEGAON CHAKAN RD SHOP NO 1,0,0,0,
113,CHANDAN PHARMACUTICALS,SAMARTH MEDICAL & GEN STORES CHINCHWAD,0,0,PCMC,
114,CHANDAN PHARMACUTICALS,GREEN HEALTH PHARMACY JADHAVWADI CHIKHALI,0,0,0,
115,CHANDAN PHARMACUTICALS,"NEW SAMARTH MED & GEN STORES KALEWADI,PIMPRI.",0,0,0,
116,CHANDAN PHARMACUTICALS,SHREENATH MED & GEN STORES KALEWADI,GULMOHARGARDEN,0,0,
117,CHANDAN PHARMACUTICALS,MAHARASHTRA MEDICAL WALHEKARWADI,CHINCHWAD.,0,PCMC,
118,CHANDAN PHARMACUTICALS,CHETAN MED & GEN STR [CASH],CHINCHWAD[2027483633],"A-21,EMPIRE ESTATE,M.P.ROAD    32529556",0,
119,CHANDAN PHARMACUTICALS,DEOKAR MED & GEN STRS [ST.DIS,BOPKHEL[9657979003][CHETAN](V,GANESHNAGAR COLONY NO 1 PUNE-31.,BHOSARI/DHAWDEVASTI/INDRA,
120,CHANDAN PHARMACUTICALS,TANURAJ MED & GEN STORES SANT TUKARAM NAGAR,0,0,0,
121,CHANDAN PHARMACUTICALS,SHIVANAND MEDICAL STORES NEAR LAXMI CHOWK HINJEWADI,0,0,0,
122,CHANDAN PHARMACUTICALS,"GAJENDRA MED & GEN STORE SHOP NO.2, PARAMPARA APT.",0,0,0,
123,CHANDAN PHARMACUTICALS,SANJEEVAN MEDI & GEN [ST DIS],PIMPLE NILAKH. [VIJAY] [ V ],"VISHAL NAGAR, [8275464870",0,
124,CHANDAN PHARMACUTICALS,MEDICARE MED & GEN STORES,DIGHI SANT GAJANAN MAHARAJ NAG,9975150616,0,
125,CHANDAN PHARMACUTICALS,KOYTE MED & GEN STORES.,NAVLAKH UMBRE.,NAVLAKH UMBRE.,0,
126,CHANDAN PHARMACUTICALS,GURUDEV MEDICAL SAI HOSPITAL TALEGAON DHABADE,0,0,0,
127,CHANDAN PHARMACUTICALS,SHYAMA MEDICO,DEHUGAON,ALANDI ROAD,PCMC,
128,CHANDAN PHARMACUTICALS,MEDWELL BHOSARI,DHAVDE VASTI,0,0,
129,CHANDAN PHARMACUTICALS,VARADLAXMI MED & GEN STORES AT POST VADGAON,0,0,0,
130,CHANDAN PHARMACUTICALS,RAJGAURI MED & GEN STORES AT POST NAVLAKH UMBRE,0,0,0,
131,CHANDAN PHARMACUTICALS,N.K MEDICAL TALEGAON DABHADE,0,0,0,
132,CHANDAN PHARMACUTICALS,"SHRI BRAMHAJYOTI MEDICALS SHOP NO.7,GROUND FLOOR,",0,0,0,
133,CHANDAN PHARMACUTICALS,VIVEKANAND HOSPITAL MEDICAL GAVANE VASTI BHOSARI,0,0,0,
134,CHANDAN PHARMACUTICALS,NEW KRUSHNA MEDICAL [CASH],NEHARUNAGAR,"SHOP NO.1,GROUND FLOOR,S.NO.10 1,MILKAT NO.8/8/02630,OLD TELC O ROAD,NEAR SAI MANDIR,PUNE",0,
135,CHANDAN PHARMACUTICALS,SWAYAMBHU MEDICAL NR GAJANAN MAHARAJ MANDIR,0,0,0,
136,CHANDAN PHARMACUTICALS,SOHAM MED & GEN STORES OPP JAMBE GRAMPANCHAYAT,0,0,0,
137,CHANDAN PHARMACUTICALS,"MAHESHWARI MEDICAL SHOP NO.1,GROUND FLOOR,",0,0,0,
138,CHANDAN PHARMACUTICALS,"SADGURU KRUPA MEDICAL VEHERGAON GRAM PANCHAYAT,",0,0,0,
139,CHANDAN PHARMACUTICALS,"ASHWINI MEDICAL & GENERAL STOR JAMBHE,SHOP NO.8,GR.FLR.,KHAN",0,0,0,
140,CHANDAN PHARMACUTICALS,ARNAV MED & GEN ST,KESHAVNAGAR,CHINCHWAD,,
141,CHANDAN PHARMACUTICALS,GURURAJ MEDICAL&GEN STR,CHINCHWAD,0,PCMC,
142,CHANDAN PHARMACUTICALS,"ARPIT MEDICAL SHOP NO.2,GR.FLR.,S.NO.199/1A/",0,0,0,
143,CHANDAN PHARMACUTICALS,ANAND MED & GEN STORES BIRADVADE COMPLEX MOI DIST,0,0,0,
144,CHANDAN PHARMACUTICALS,MEDIZOOP CHEM&DRUGG RAHATANI SAI LUXURIA,0,0,0,
145,CHANDAN PHARMACUTICALS,"SADGURU MED & GEN STORES. PRADHIKARAN,NIGDI.",0,0,0,
146,CHANDAN PHARMACUTICALS,GURUKRIPA MED.& GEN. STORE MALAVLI RAILWAY STATION,0,0,0,
147,CHANDAN PHARMACUTICALS,PADMAVATI MED & GEN STORES A/P URESE,0,0,0,
148,CHANDAN PHARMACUTICALS,SUYASH  MEDICAL STORES RAHATANI,0,0,0,
149,CHANDAN PHARMACUTICALS,"SHWAS PHARMA CHEMIST AND DRUGI ZONE NO.14,GAT NO.53/2,",0,0,0,
150,CHANDAN PHARMACUTICALS,SANSKRUTI MEDICO GANESH NAGAR RAVET,0,0,0,
151,CHANDAN PHARMACUTICALS,AARADHYA MEDICAL BEBADOHAL SOMATNE ROAD,0,0,0,
152,AMAR AGENCIES,SHRI MEDICAL & GEN STO [CASH] PIMPRI,0,0,0,
153,AMAR AGENCIES,JYOTIBA MEDICAL & GEN[CASH],ANJALI COMPLEX GAT NO 1263 PROPERTY NO 01529 SANE VASTI CHIKHALI AKURDI ROAD,0,0,
154,AMAR AGENCIES,SHRIJEE MED STORES [ST.DISC.],TALEGAON STATION. [NANDU] [L],"CST NO-526,PLOT NO-189,SHOP NO B-06,GR.FL-RUSHIKESH APT YASH- WANTNAGAR COLONY TAL-MAVAL",0,
155,AMAR AGENCIES,PRADEEP MED STORES [CASH],CHIKHALI [9604132791],"SHOP NO 3,GAT NO 868,MILKAT NO 206,SITIA NIVAS,CHIKHALI,TAL HAVELI,DIST PUNE.",0,
156,AMAR AGENCIES,GURUKRUPA MED STR [CASH]. MALAVLI  LONAVALA[DAREKAR] B,0,0,0,
157,AMAR AGENCIES,JEEVAN MED & GEN  [ST.DIS.][13,NIGDI [7655753].,"SEC.NO.27A,PLOT NO.185         PRADHIKARAN NIGDI PUNE-411044",0,
158,AMAR AGENCIES,OM MED & GEN STORES [CASH],PRADHIKARAN,"GAYTRI VILLA BLDG,SHOP NO.3    PUNE-44                        GAYTRI VILLA BLDG,SHOP NO.3",0,
159,AMAR AGENCIES,YOGESH MED & GEN STR [ST.DIS],THERGOAN  [KAKA] {9},GUJARNAGAR NEAR VITTAL         RUKHMANI TEMPLE PUNE-33.,0,
160,AMAR AGENCIES,SHRI SAPTASHRINGI MED [ST.DIS] PIMPRI [7276977]  {5},0,0,0,
161,AMAR AGENCIES,SHRIRAM MEDICAL [CASH],PRADHIKARAN [9823747876,"S.NO.26,TRIMURTI HOUSG.SOCIETY PUNE-35 S.NO.26,TRIMURTI HOUSG.SOCIETY",0,
162,AMAR AGENCIES,PARSHWANATH MED [ST.DIS],TALEGAON [NANDU] [L],0,0,
163,AMAR AGENCIES,DEOKAR MED & GEN STRS [ST.DIS,BOPKHEL[9657979003][CHETAN](V,GANESHNAGAR COLONY NO 1 PUNE-31.,BHOSARI/DHAWDEVASTI/INDRA,
164,AMAR AGENCIES,SHRI RAM MED & GEN STORES,DIGHI,0,,
165,AMAR AGENCIES,PRADHAN MANTRI JAN AUSH [ST.DI PIMPLE SAUDAGAR[SUBHASH][P],0,0,0,
166,AMAR AGENCIES,YASHWANT MED & GEN STOR [CASH TALEGAON [NANDU] [L],0,0,0,
167,AMAR AGENCIES,SACHIN MEDICAL & GEN ST [CASH TALEGAON STATION  [NANDU][L],0,0,0,
168,AMAR AGENCIES,NANDINI MED.& GEN.STORES KIVALE,DEHUROAD,PENDASE COLONY,PCMC,
169,AMAR AGENCIES,LAXMI MEDICAL & GEN ST[CASH],MOSHI. [KAILAS]  (W),PUNE-NASIK ROAD GAIKWAD WASTI,0,
170,AMAR AGENCIES,RELIFE CHEM & DRUG[ST.DIS3][4,PIMPRI [89990925414],2065002133,0,
171,AMAR AGENCIES,JAISHREE MEDI & GEN STO [CASH],OLD SANGVI[JADHAV] F,0,0,
172,AMAR AGENCIES,NOBLE MED.& STO[ST.DIS] [16] CHIKHALI 9975801176,0,0,0,
173,AMAR AGENCIES,SAI RAM MED & GEN ST,THERGAON,0,,
174,AMAR AGENCIES,MATAJI MEDICAL & GEN.STO.[CASH,MOSHI. [KAILASH] [ W ],"SHIVAJIWADI ROAD,              9026359749                     SHIVAJIWADI ROAD,",0,
175,AMAR AGENCIES,PRATHMESH MEDI [ST.DIS] [2] RAMNAGAR,0,0,0,
176,AMAR AGENCIES,SHRIYASH MED.& GEN.STO.[CASH],CHIKHALI. [RAJU ] H,"LAXMI ROAD,",0,
177,AMAR AGENCIES,GAYATRI MED.& GEN STO [CASH],PIMPLE GURAV.[SAWANT],"SHOP NO 2,MONALI PARK,         PUNE-27                        SHOP NO 2,MONALI PARK,",0,
178,AMAR AGENCIES,MARUDHAR MEDICO [ST.DIS][13],WAKAD [9970780256],"SHOP NO.4,S.NO.228/06/20 &21,  KASPATE VASTI",0,
179,AMAR AGENCIES,SANJEEVAN MEDI & GEN [ST DIS],PIMPLE NILAKH. [VIJAY] [ V ],"VISHAL NAGAR, [8275464870",0,
180,AMAR AGENCIES,JAY MEDI & GEN STO [CASH],WALHEKARWADI[MARUTI] [X],"GR.FLR.,S.NO.32/2K/3,OM COLONY 9028261641",0,
181,AMAR AGENCIES,MEGA MEDICAL,HINJAWADI,0,,
182,AMAR AGENCIES,SHREE SAMRUDHI MEDICAL[ST.DIS],LOHEGAON. [9021468910],MIL NO 1210 SHOP NO 1 SUNDARBAN SADAN SHIV NAGAR PUNE.,0,
183,AMAR AGENCIES,ARNAV MEDICAL & GEN [ST DIS],"S.NO.284/4,NEAR KUNAL RAJPARK, KESHAVNAGAR CHINCHWAD, PUNE-411033.",KALEWADI/THERGAON,0,
184,AMAR AGENCIES,SHREYA MED & GEN STO [CASH] CHIKHALI.[ SAYYAD] [Z],0,0,0,
185,AMAR AGENCIES,MALWADI TALEGAON [BANKALE],TAL MAVAL.[ F ] PROP NO 181397,TALEGAON,0,
186,AMAR AGENCIES,CITY MEDICO [CASH],SPINE ROAD CHINCHWAD.,SHOP NO 1 SEC NO 18 PLOT NO 629,0,
187,AMAR AGENCIES,VIVEKANAND MEDICAL[CASH],THERGAON.,DANGE CHOWK.,0,
188,AMAR AGENCIES,VIGHNAHARTA MEDICAL &G[CASH,S.T.NAGAR.[BRIJESH] [ I ],PROP NO 541/3096 966552520,BHOSARI/DHAWDEVASTI/INDRA,
189,AMAR AGENCIES,JIVANREKHA MEDICAL[CASH],DEHUROAD. [PRAVIN] [L],ROOM NO 5 SR 28/A16/5 PRABHU   COMPLEX 1ST FLOOR.,0,
190,AMAR AGENCIES,SHIVAM MED & GEN STO [CASH],ALANDI ROAD.[9970293293],0,0,
191,AMAR AGENCIES,SAI SAMARTH & GEN STO[CASH],TALUKA MULSHI.[NOOR],SHOP N 1 AT POST JAMBE MILKAT NO 407 SERVE NO 26/1,0,
192,AMAR AGENCIES,MARUTI MEDICO,TATHWADE WAKAD,0,,
193,AMAR AGENCIES,NEW SUPREME MEDICO [O.CASH] NIGADI.[9561748471],0,0,0,
194,AMAR AGENCIES,SIDDHIVINAYAK MEDICAL [CASH],0,0,0,
195,AMAR AGENCIES,SHREE MAULI MEDI& GEN STO [CAS HANUMANWADI.[DEEPAK],0,0,0,
196,AMAR AGENCIES,JYOTIBA MEDICO [CASH] RAHATANI.[9762808844],0,0,0,
197,AMAR AGENCIES,"SIDDHA SURGICAL&PHAR[CASH] PIMPRI,",0,0,0,
198,AMAR AGENCIES,SANT KRUPA MEDICAL [CASH],DEHUGAON.[8605065053][HATALE],"SSHOP NO 8,CT SR NO 4/93233/03 WARD NO 4,NEAR SANT KRUPA OFFI DEHUGAON,PUNE.",0,
199,AMAR AGENCIES,REVIVE MEDICO & GEN STORES CHINCHWAD,GANESH CORNER,SH.N.3,PCMC,
200,AMAR AGENCIES,SHIVDNYA MEDICAL [CASH] MOSHI.[8459194970],0,0,0,
201,AMAR AGENCIES,WELLNESS CHEMIST [ST.DIS] WAKAD,0,0,0,
202,AMAR AGENCIES,PG MEDICAL [CASH] HINJAWADI.[9001886136],0,0,0,
203,AMAR AGENCIES,JAIHIND MEDICAL [CASH] JADHAVWADI CHIKHLI,0,0,0,
204,AMAR AGENCIES,JAIN MED & GEN STRS [ST.DISC],PAVNANAGAR [NARAYAN] [ N ],PUNE 410506,0,
205,AMAR AGENCIES,ANIL MED & GEN STR [ST.DIS[12] M.I.D.C. 9096009077[YOGESH],0,0,0,
206,AMAR AGENCIES,VIKASMEDICALS KIWALE,0,0,0,
207,AMAR AGENCIES,SADASHIV MED & GEN STR [CASH] MULSHI [HARUN],0,0,0,
208,AMAR AGENCIES,NEW AKANKSHA MED & GEN [CASH],THERGAON [9850275824] NAGESH,PAWAR-NAGAR                    PUNE-411 033.                  PAWAR-NAGAR,0,
209,AMAR AGENCIES,KOYATE MED & GN ST [CASH] MAVAL [DAREKAR]   (B),0,0,0,
210,AMAR AGENCIES,SUJAY GENERIC MED STO [CASH] PIMPLE GURAV.[8624866633]MUKES,0,0,0,
211,AMAR AGENCIES,UNIQUE MEDICAL & GN ST[ST DIS] CHINCHWAD STATION   9850074293,0,0,0,
212,AMAR AGENCIES,INDRAYANI MED & GEN ST[CASH],KAMSHET [NARAYAN] [N],"SHIVAJI CHOWK TAL.MAVAL,                                      SHIVAJI CHOWK TAL.MAVAL,",0,
213,AMAR AGENCIES,YASH MEDICO [CASH],KIWALE DEHURAOD [VIKAS] [ I ],9850714594 POONA,0,
214,AMAR AGENCIES,MEDICIN PLUS PHARMA & GEN[CASH,PIMPRI.RAHATNI[NAGESH],SHIVAJI CHOWK.,0,
215,AMAR AGENCIES,TRUPTI MEDI & GEN.STO.[CASH],ALANDI.      [DEEPAK][A],"VADGAON ROAD,",0,
216,AMAR AGENCIES,SHREE TUKARAM MEDICAL [CASH] PAWANANAGAR [KURESHI] [Q],0,0,0,
217,AMAR AGENCIES,NAVACHAITANYA MEDICO [CASH],MOSHI   [DEEPAK][A],0,0,
218,AMAR AGENCIES,JIVAN MEDICAL & GEN STO[ST.DIS WAKAD.[NAGESH],0,0,0,
219,AMAR AGENCIES,APPLE MEDICAL & STO [CASH] PIMPLE NILAKH.[8888362777],0,0,0,
220,AMAR AGENCIES,KALPTARU MED & GEN STO [CASH] RAHATANI  [VIJAY][8087693934],0,0,0,
221,AMAR AGENCIES,S.K.SURGICAL &PHARMA[CASH] PIMPRI GAON.[9404819237],0,0,0,
222,AMAR AGENCIES,ADITI MEDI & GEN STO[CASH],MORE WASTI CHIKHALI SHOP NO 2 HARIBHAU NIWAS GAT NO .3,0,0,
223,AMAR AGENCIES,PIYUSH MEDICALS [ST.DIS] {23} NIGDI.[9595543330],0,0,0,
224,AMAR AGENCIES,MEDI PHARM CHEMIST & DRUGIST SHAHU NAGAR,CHINCHWAD,0,PCMC,
225,AMAR AGENCIES,TULJAI MEDICAL & GEN STOR[CASH DEHUGAON[9922921130],0,0,0,
226,AMAR AGENCIES,MEDILIFE CHEMIST & DRU[CASH] PIMPLE NILAKH[9657004125],0,0,0,
227,AMAR AGENCIES,MUKTA MEDICAL [CASH] PIMPRI.[8983847070],0,0,0,
228,AMAR AGENCIES,LIFELYNE MED & GEN STO [CASH] BOPKHEL CHETAN <V>,0,0,0,
229,AMAR AGENCIES,AATISH MEDICAL & GEN STO[CASH],LONAVALA[KURESHI],SHOP NO 1 PLOT NO 9 OM PARK BHAIRAVNATH NAGAR.,0,
230,AMAR AGENCIES,DS SMARTLIFE MEDICAL[CASH] PIMPRI,0,0,0,
231,AMAR AGENCIES,**CHETAN SWAST AUSHADHI [CASH] PASHAN[7447859297],0,0,0,
232,AMAR AGENCIES,SHREE KARTIK MEDICO,GURUDWARA ROAD,WALHEKARWADI,,
233,AMAR AGENCIES,NEW KRUSHNA MEDICAL [CASH],NEHARUNAGAR,"SHOP NO.1,GROUND FLOOR,S.NO.10 1,MILKAT NO.8/8/02630,OLD TELC O ROAD,NEAR SAI MANDIR,PUNE",0,
234,AMAR AGENCIES,GURURAJ MEDICAL&GEN STR,CHINCHWAD,0,PCMC,
235,AMAR AGENCIES,NITYASEVA MEDICAL [CASH] KHED.[8329904275](DEEPAK),0,0,0,
236,AMAR AGENCIES,WELLHEALTH MEDICO [CASH] CHAKAN.[9657073939],0,0,0,
237,AMAR AGENCIES,UNITY MEDICAR[CASH] WAKAD,0,0,0,
238,AMAR AGENCIES,WELLCARE MEDICO,SHOP NO-5 RAHATANI,0,,
239,AMAR AGENCIES,MAHESHWARI MEDICAL [CASH] MOI.[9850297696][RAJU],0,0,0,
240,AMAR AGENCIES,MEDLIFE MEDICO [CASH] SANGVI.[9158825888],0,0,0,
241,AMAR AGENCIES,ASHWINI MED & GEN STO [CASH] MULSHI.[9657494167],0,0,0,
242,AMAR AGENCIES,PRISHA MEDICAL STO [ST.DIS] BHOSARI,0,0,0,
243,AMAR AGENCIES,SAKSHI MEDI & GEN STO [CASH] TAKWAE[8329167283] MORE,0,0,0,
244,AMAR AGENCIES,DEVIPRASAD MED & GEN STO [CASH,RUPEENAGAR.[9175429890],"S.NO.22,NEAR SOMESHWER TEMPLE, PUNE-44",0,
245,AMAR AGENCIES,YASHASHREE MED.& GEN STO [CASH,CHINCHWAD. [VISHNU][M],"BILD NO 9,SHOP NO SII,OFF GAT  TRANSPORT AJANTANAGAR PUNE-19",0,
246,AMAR AGENCIES,SAI PREM MED & GEN STO [CASH],MAHALUNGE,CHAKAN/KHED,0,
247,AMAR AGENCIES,SAISHREE MEDICO [ST.DIS] PRADHIKARAN.[8149666001] {12},0,0,0,
248,AMAR AGENCIES,TANURAJ MEDI & GEN STO [CASH] S.T.NAGAR,0,0,0,
249,AMAR AGENCIES,TULSI MEDICAL & GENERAL [CASH] BHOSARI.,0,0,0,
250,AMAR AGENCIES,SHREYASH MEDI &GEN STOR[CASH] URSE  [BANKALE] (F),0,0,0,
251,AMAR AGENCIES,PASAYDAN MEDICAL [CASH] ALANDI [DEEPAK],0,0,0,
252,AMAR AGENCIES,BHAGYALAXMI MEDICAAL [CASH] RUPEENAGAR [SONAWANE],0,0,0,
253,AMAR AGENCIES,RELIFE MED & GEN STR [CASH] PRADHIKARAN [27657598],0,0,0,
254,AMAR AGENCIES,MANALI MED & GEN STORES [CASH],DEHUGAON [8975764681][SHIVANI],MALVADI                                                       MALVADI,0,
255,AMAR AGENCIES,PADMAVATI MEDICAL [CASH] LONAVALA   [KURESHI][Q],0,0,0,
256,AMAR AGENCIES,INDRAYANI MED.& GEN.[CASH] TAL-KHED    [MANOHAR]O],0,0,0,
257,AMAR AGENCIES,VARDHAMAN MEDICAL & GEN[CASH] MOSHI PRADHIKARAN.[SHASHI] [R],0,0,0,
258,AMAR AGENCIES,MAMTA MEDI & GEN [ST.DIS] S.T.NAGAR. [9284041035],0,0,0,
259,AMAR AGENCIES,S.D.PHARMA CHEMIST & DR[CASH,PIMPLE SAUDAGAR.,"NAVALE RESIDENCY,PIMPLE SAUDAG PUNE-411027.",0,
260,AMAR AGENCIES,VARADLAXMI MED & GEN STO [CASH MAVAL.[9405867138],0,0,0,
261,AMAR AGENCIES,NITIN MEDICAL STO [CASH] HINJWADI.[8668684864][HARUN],0,0,0,
262,AMAR AGENCIES,KAMDHENU MEDICAL [CASH] RAHATANI.[9890332966],0,0,0,
263,AMAR AGENCIES,SANDEEP MED STR [ST.DIS] CHINCHWAD.9850655841,0,0,0,
264,AMAR AGENCIES,NEW LUCKY MEDICAL [CASH] DAPODI.[9921170665]RAMBHAU,0,0,0,
265,AMAR AGENCIES,DATTARAJ MEDICAL [CASH],PIMPLE GURAV [SAWANT],0,0,
266,AMAR AGENCIES,SADGURU MED & GEN STO [CASH] NIGDI.9822791963,0,0,0,
267,AMAR AGENCIES,CHATRAPATI SHIVAJI MEDI[CASH],THERGAON,THATHAWADE THATHAWADE,0,
268,AMAR AGENCIES,SUYOG MED & GEN STIRES[CASH],AJMERA     [BRIJESH],9922509082,0,
269,AMAR AGENCIES,MORYA MED & GEN STORES[CASH],MOSHI [9270034435][MANOHAR],"BHAGIRATHI COMPLEX, PUNE NASH- IK HIGHWAY,PUNE",0,
270,AMAR AGENCIES,ADITYA MED.& GEN STO [CASH] BIJILINAGAR.[NOOR]8856811130,0,0,0,
271,AMAR AGENCIES,SAMARTH MEDICAL & GEN STORES CHINCHWAD,0,0,PCMC,
272,AMAR AGENCIES,HANUMAN MEDICAL & GEN.STO[CASH TRIVENINAGAR[8888219023],0,0,0,
273,AMAR AGENCIES,DHANWANTRI PHARMA [CASH] CHINCHWAD.[9860509960],0,0,0,
274,AMAR AGENCIES,NIDAANMEDICO CHIKHALISHOP NO.4,HARSHAL COM,0,0,
275,AMAR AGENCIES,LAXMI MEDI & GEN STO [CASH] DAPODI   (MUKESH)   (M),0,0,0,
276,AMAR AGENCIES,SHRUSHTI MED & GEN STO [CASH],"TRIVENI NAGAR, [GOVIND] [D]","SHOP NO 1,GR.FLR,SAI COLONY, PUNE-412114.",0,
277,AMAR AGENCIES,PURASKAR MED STORE [CASH] SOMATANE PHATA [BANKHAL],0,0,0,
278,AMAR AGENCIES,JAYSHREE MED & GEN STO [CASH] CHIKHALI.[9503753469][MAZAR],0,0,0,
279,AMAR AGENCIES,ARIHANT PHARMA [CASH] CHINCHWAD.,0,0,0,
280,AMAR AGENCIES,PATIL MED & GEN STO [CASH] TAL KHED.  [MANOHAR],0,0,0,
281,AMAR AGENCIES,NOBLE MEDICAL [O.CASH] CHAKAN,0,0,0,
282,AMAR AGENCIES,DEEPAK MEDICAL [CASH] TALEGON DABHADE,0,0,0,
283,AMAR AGENCIES,TIME STONE MEDICO PVT LTD BHOSARO [DIGHI ROAD],0,0,0,
284,AMAR AGENCIES,DAPODI[RAMBHAU],"SHOP NO.1,GR.FLR.HOUSE NO.246/ 3,PROP NO.1090600663,NR.MARYTI MANDIR PUNE",0,0,
285,ANAND MEDICAL DISTRIBUTORS,SOLANKI MEDICO,SH.NO.5 BLUE BERY WING B GR.FLOR,"NR.HIGH CHOICE KHARADI, ;",PUNE,
286,ANAND MEDICAL DISTRIBUTORS,ROYAL MEDICINES,KOREGAON PARK ISTERLING SOCIET,"PUNE 1, YERAWADA",PUNE,
287,ANAND MEDICAL DISTRIBUTORS,TRIMURTI MED & GEN.STORE,LONI-KALBHORE.,LONI STATION,PUNE,
288,ANAND MEDICAL DISTRIBUTORS,CAMP MEDICAL STORES,"SHOP NO.5 GROUND FLOOR,",JAAN MOHAMMAD STREET,PUNE,
289,ANAND MEDICAL DISTRIBUTORS,GAUTAM MEDICAL,MAGARPATTA HADAPASR,"PUNE, HADPSAR -2",PUNE,
290,ANAND MEDICAL DISTRIBUTORS,SHRIRAM MEDICO & GEN. ST.,"N.D.A. ROAD, VARJE JAKAT NAKA",WARJE MALWADI,PUNE,
291,ANAND MEDICAL DISTRIBUTORS,WISDOM CARE,"SHOP NO.8,HERMS SHOPING CENTER,","GAFFARBEG STREET,KAMATIPURA",PUNE,
292,ANAND MEDICAL DISTRIBUTORS,SHREE ANUP MEDICAL,"SHOP NO.1,GR FLOOR,AHRAF NAGAR,","LNE NO 3,SR.NO.5/11/10",PUNE,
293,ANAND MEDICAL DISTRIBUTORS,ROYAL MEDICO CHEMIST & DRUGGIST,"SHOP NO.3,VRINDAVANAM APT,",SHINDE NAGAR,PUNE,
294,ANAND MEDICAL DISTRIBUTORS,RAMDEV MED & GEN STORES,PIMPLE NIKAL NR JAGTAP DAIRY,"PUNE -38, KARVE ROAD",PUNE,
295,ANAND MEDICAL DISTRIBUTORS,SATISH MEDICAL,URLI KANCAN,"PUNE, SOLAPUR ROAD(DA",PUNE,
296,ANAND MEDICAL DISTRIBUTORS,LIFECARE MEDICAL,"SHOP NO.2,GR.FLR.","ADESH COMPLEX,DAREKAR VASTI",0,
297,ANAND MEDICAL DISTRIBUTORS,SHAMASHRI MEDICALS,KHADAKI PUNE,0,PUNE,
298,ANAND MEDICAL DISTRIBUTORS,ANUP CHEMIST,Z. P. BLDG.,STATION RD,PUNE,
299,ANAND MEDICAL DISTRIBUTORS,FARHAT MED & GEN STORES,"SHOP NO.2,GHORPADE PETH,","PUNE-411042, A",PUNE,
300,ANAND MEDICAL DISTRIBUTORS,NEW SAVE MEDICINE SHOPPEE,SHOP NO.4 RATAN CHAMBERS.,"A.D.CAMP CHOWK NEAR.BHARAT, BHAWANI PETH",PUNE,
301,ANAND MEDICAL DISTRIBUTORS,SHREERAJ MEDICALS,"BIBWEWADI,RAJIV GANDHI NAGAR","PUNE-37, BIBWEWADI",PUNE,
302,ANAND MEDICAL DISTRIBUTORS,SHRIPAD MEDICALS,"37/3A YOGI PARK,SH.NO.-7","DHANKAWDI.PUNE-43 PH.4373446, DHANKAWADI",PUNE,
303,ANAND MEDICAL DISTRIBUTORS,SHREE SIDDNATH MEDICAL,"SHOP NO.3,SR.NO.132,PANCHTARA HOS.SOC.",SINGHGAD ROAD,PUNE,
304,ANAND MEDICAL DISTRIBUTORS,PAVAN MEDICAL,SH.NO. 1 &2 KALAKRUTI COM.,KELKAR ROAD PUNE,PUNE,
305,ANAND MEDICAL DISTRIBUTORS,SAFELIFE CHEMIST & GEN STORES,SH.NO. 1&2 SOPANBAUG SOCIETY,PANCHAVATI PASHAN RD PASHAN,PUNE,
306,ANAND MEDICAL DISTRIBUTORS,SHRI GANESH MED & GEN STORES,SH.NO1 HOUSE NO 139,PUNE,PUNE,
307,ANAND MEDICAL DISTRIBUTORS,MAHENDRA DRUG HOUSE,"SHOP NO. 2 418, MITTAL CHAMBERS",J.M.ROAD,PUNE,
308,ANAND MEDICAL DISTRIBUTORS,SHYAM MED.& SURGICAL STORES,SHOP NO.9 ANANT MANHOAR SOC,BEHIND BALAJI AUTOMOBILE BUSHARI COLONY,PUNE,
309,ANAND MEDICAL DISTRIBUTORS,VIVEK MED.& GEN.STORES,"SHOP NO.4,GROUND FLOOR,S.NO.22,","THITHE WASTI,LANE NO.7",PUNE,
310,ANAND MEDICAL DISTRIBUTORS,SHREE BALAJI MEDICO.,"SHOP NO.6,VINAY CHEMBAR,GR.FLR",BHAMBHURDA S.B.ROAD,PUNE,
311,ANAND MEDICAL DISTRIBUTORS,SHIVGORAKSH MEDICAL,"SHOP NO.4,SHRINATH KRUPA BLDG,","RAJIV GANDHI NAGAR,",PUNE,
312,ANAND MEDICAL DISTRIBUTORS,SIDDHIVINAYAK MED.& GEN.STORES,"940/2 DHANKAWADI,PUNE",0,PUNE,
313,ANAND MEDICAL DISTRIBUTORS,HEALTHCARE MEDICO CHEMIST & DRUGGIST,SH.NO.1 AGARWAL APPT,LULLANAGAR,PUNE,
314,ANAND MEDICAL DISTRIBUTORS,SHALINI MEDICAL,WANORI,", VANVADI",PUNE,
315,ANAND MEDICAL DISTRIBUTORS,KUMAR MEDICO,E-KUMAR PARISHAR    SH.NO.2,NR. GANDHI BHAWAN RD,PUNE,
316,ANAND MEDICAL DISTRIBUTORS,KALPATARU MEDICAL,KOTHRUD SHASTRINAGAR,"MUTHESHWAR COLONY PUNE, KARVE ROAD",PUNE,
317,ANAND MEDICAL DISTRIBUTORS,SHRI TEJ MEDICAL,LONI KALBHOR,", A",PUNE,
318,ANAND MEDICAL DISTRIBUTORS,VIJAY MED.CHE.DRU.& GEN.STORES,"SP NO 1 & 2 GR FLR.ASHIYANA M.NO 1/0554/01,","DABHADE VASTI, WAGHOLI",PUNE,
319,ANAND MEDICAL DISTRIBUTORS,SHREE KOHINOOR MEDICO..,"SHOP NO 4 & 5,S.NO.2/1/16,SOPAN BAUG","MAMTA SHOPPING,BALEWADI,PUNE-411045",PUNE,
320,ANAND MEDICAL DISTRIBUTORS,FLORA MEDI & GEN STORES,PINGLE VASTI  MUNDHWA RD,GHORPADI GAON,PUNE,
321,ANAND MEDICAL DISTRIBUTORS,VISHV MED.& GEN.STORES,"SHOP NO.1,GR.FL.SR.NO.37 TO 45 PLOT NO.218","TEJAS APPT,TALEGAON",PUNE,
322,ANAND MEDICAL DISTRIBUTORS,SAISHREE MED.CHEMIST & DRUGGIST,"SHOP NO.2,GR.FLR.RAJ RES.","RAJ LAND,ZAVERI COLONY,TALEGAON DABHADE",PUNE,
323,ANAND MEDICAL DISTRIBUTORS,DURGA MEDICAL,BAVDHAN,N/A,BAVDHAN,
324,ANAND MEDICAL DISTRIBUTORS,NEW RATHOD MEDICO,MUKUNDNAGAR SHOP 4 RATNA BLD,"PUNE 37, GHORPADE PETH",PUNE,
325,ANAND MEDICAL DISTRIBUTORS,SHRADDHA MED.& GEN.STORES,"SHOP NO.3, GROUND FLOOR.SR.NO.43/2/5","LAXMI HEIGHT'S , AMBAIMATA ROAD , DHAYARI PUNE-411041",PUNE,
326,ANAND MEDICAL DISTRIBUTORS,YOGESH MEDICALS,BUDHWAR PETH PUNE,", VITTHALWADI",PUNE,
327,ANAND MEDICAL DISTRIBUTORS,PAVITRA MED.& GEN.STORES,"S.NO.46/9,SHREE GAJAJNAN KRUPA","SAGAR PARK,VADGAON SHERI",PUNE,
328,ANAND MEDICAL DISTRIBUTORS,POOJA MEDICALS,DAHANUKAR COLONY,"KOTHRUD, KARVE ROAD",PUNE,
329,ANAND MEDICAL DISTRIBUTORS,SHRI VETALNATH MED.& GEN.STORE,"GAT NO 874,A/P BOPGAON",TAL.PURANDAR,PUNE,
330,ANAND MEDICAL DISTRIBUTORS,SANGHAVI MEDICAL,"CAMP,OPP NEHARU MEMO.HALL","PUNE    6137575, CAMP",PUNE,
331,ANAND MEDICAL DISTRIBUTORS,NARESH CHEMIST & DRUGGIST,"SHOP NO.3,GR.FL,BLDG.NO.A-2,","BANDAL HSG SOC,PLOT NO.3,SR.NO.81/1",PUNE,
332,ANAND MEDICAL DISTRIBUTORS,HARI BHARDWAJ MEDICAL STORE,"SHOP NO.9,ASHIRWAD BLDG A.S.NO.50,",OPP.KONARK POORAM.KONDHWA KHURD,PUNE,
333,ANAND MEDICAL DISTRIBUTORS,AJIT MEDICO,DHAYARI S.N 145.GARMAL,"PUNE, VITTHALWADI",PUNE,
334,ANAND MEDICAL DISTRIBUTORS,AADHAR PLUS MEDICALS,"S.NO.37/S,A/2,SAMARTH COMPLEX,",DHANKAWADI,PUNE,
335,ANAND MEDICAL DISTRIBUTORS,SHRI SHIVKRUPA MEDICAL&GENERAL STORE,LANE.NO.04.GOKULNAGAR.SHOP.1.GR FLR.S.NO5.,48/3/6.PRASAD MARK.WADKAR.BLDG.KONDAWA ROAD,PUNE,
336,ANAND MEDICAL DISTRIBUTORS,TANISHQ MEDICO,"SHOP NO.3 & 4,GR.FLR.TRIMURTI BLDG.","SATHE VASTI,LOHEGAON",PUNE,
337,ANAND MEDICAL DISTRIBUTORS,"STES,SMT.KASHIBAI NAVALE MED COL & G.HOS CENTRAL PHARMACY","BUILD NO.1,SR.NO.49/2,PROP.NO.0816,",S.K.N SUPERSPECIALITY HOSPITAL,PUNE,
338,ANAND MEDICAL DISTRIBUTORS,SADGURU MED & GEN STORES,KRIKATWADI,0,PUNE,
339,ANAND MEDICAL DISTRIBUTORS,ESSENCE MEDICO,SHOP NO.28 SATYALOK HSG SOC.,GADITAL HADAPSAR,PUNE,
340,ANAND MEDICAL DISTRIBUTORS,MOHAN MEDICALS,"SHOP NO.1,PROP NO 1369,",NR.MULSHI SPEC.HOSP.LAVLE PHATA,PUNE,
341,ANAND MEDICAL DISTRIBUTORS,IRA MEDICALS,KAPURHOLE,"BHOR PUNE, SAHAKARNAGAR",PUNE,
342,ANAND MEDICAL DISTRIBUTORS,DHANASHREE MED & GEN STORES,"S.NO.27/608,FIRST FLOOR,",NEW EXCELSIOR COMPLEX,PUNE,
343,ANAND MEDICAL DISTRIBUTORS,RAJMANE MEDICAL,"SHOP NO.14,LOWER GROUND,SHRI GANESH VISHWA","NEAR TO SHARDA SAH BANK,GOKUL NAGAR",PUNE,
344,ANAND MEDICAL DISTRIBUTORS,SWEET LIFE MEDICINES,"GURUDWARA COLONY,",LOHGAON,PUNE,
345,ANAND MEDICAL DISTRIBUTORS,RUDRAKSH CHEMIST,SUNSHREE E-4.SHOP.NO.6 NIBM,KONDHAWA KHURD,PUNE,
346,ANAND MEDICAL DISTRIBUTORS,SAFELIFE MEDIZONE PVT.LTD.,"RH.NO.5,PLOT 73A,SR.NO.199+204 TO 206/1,","209/1,KINGSPORT HOME SOC,",PUNE,
347,ANAND MEDICAL DISTRIBUTORS,LABBAIK MEDICAL.,"SHOP NO.1,GR.FLR.",323 GHORPADE PETH,PUNE,
348,ANAND MEDICAL DISTRIBUTORS,MANSI MEDICO,"SHOP 1 & 2,GR.FLR GALANDAJ CHOWK",JUNI WADARWADI,PUNE,
349,ANAND MEDICAL DISTRIBUTORS,VINAYAK MEDICO,SH.NO 11 CHANDRAMA BLD,DSK VISHWA,PUNE,
350,ANAND MEDICAL DISTRIBUTORS,SANCTUS HEALTHCARE PVT LTD,"GROUND FLOOR,F BUILDING,FLAT NO 2&3,","GURU TEJ BAHADUR CO-OP HSG.SOC,",PUNE,
351,ANAND MEDICAL DISTRIBUTORS,THE HEALTH FOREVER,"SHOP NO.6 & 105,NIYATI ETERNITY",UNDRI,PUNE,
352,ANAND MEDICAL DISTRIBUTORS,JAI MEDICO,"SHOP NO.6,SIDDHART COMPLEX,","S.NO.137/2/2A,POUD ROAD",PUNE,
353,ANAND MEDICAL DISTRIBUTORS,SHREE SAMARTH MED & GEN STORES,KATARJ KONDHAWA RD,BIBWEWADI,PUNE,
354,ANAND MEDICAL DISTRIBUTORS,NEW SHREYASH MEDICAL,"SHOP NO.3,GROUND FLOOR,","MIL NO.0502 JADHAV HEIGHTS,KESNAND",PUNE,
355,ANAND MEDICAL DISTRIBUTORS,SHREENATH MEDICAL & GEN STORES,HADAPSAR GADITAL,"PUNE, HADAPSAR-1",PUNE,
356,ANAND MEDICAL DISTRIBUTORS,LALIT MEDICALS,BIBWEWADI,"PUNE 9420506679, BIBWEWADI",PUNE,
357,ANAND MEDICAL DISTRIBUTORS,MAHESHWARI MED & GEN STORES,SAHAKARNAGAR,"PUNE, SAHAKARNAGAR",PUNE,
358,ANAND MEDICAL DISTRIBUTORS,SATYAM MEDICO.,"S.NO.17/1K/1/57,A/4 STARGAZE SOCIETY",DHANORI,PUNE,
359,ANAND MEDICAL DISTRIBUTORS,SHRI SAMARTH MED & GEN STORES,SHASHTRINAGAR KOTHRUD SRY 83/1,"PUNE, 1",PUNE,
360,ANAND MEDICAL DISTRIBUTORS,TIRUPATI MEDICO,KIRKITWADI,0,PUNE,
361,ANAND MEDICAL DISTRIBUTORS,PRATHAMESH MEDICAL,SH.NO.9 CHANDRANIL CO OP SOC,SINHGAD ROAD PARVATI,PUNE,
362,ANAND MEDICAL DISTRIBUTORS,KAMAL MEDICAL,PAUD ROAD KOTHRUD,KONDHWA KHURD,PUNE,
363,ANAND MEDICAL DISTRIBUTORS,PAIGUDE MEDICAL,"SB 15,SOBA-SANJ APPT,","678,BIBEWADI",PUNE,
364,ANAND MEDICAL DISTRIBUTORS,MEDI WORLD PHARMA,"SHOP NO.3,RAVI RAJ ASTRA","SR.NO.38,H.NO.13/1",PUNE,
365,ANAND MEDICAL DISTRIBUTORS,ISHAN MED & SUR STORE,SUS ROAD PASHAN,"PUNE, PASHAN",PUNE,
366,ANAND MEDICAL DISTRIBUTORS,POONA MED & GEN.STORE,KONDHWA BK.,"YEWALE WADI PUNE 48, KONDHWA",PUNE,
367,ANAND MEDICAL DISTRIBUTORS,ISWAR DRUG HOUSE,SUS ROAD,"PASHAN PUNE-21, PASHAN",PUNE,
368,ANAND MEDICAL DISTRIBUTORS,NAEEM MEDICAL,"SHOP NO.3,RIZWAN RESIDENCY",KONDHWA KHURD,PUNE,
369,ANAND MEDICAL DISTRIBUTORS,YOGESH MEDICAL.,SHOP NO.LS-3 ATHARVA PLAZA,"NEAR SUDARSHAN MITRA MANDAL,NDA ROA",PUNE,
370,ANAND MEDICAL DISTRIBUTORS,NEW AASHIRWAD MEDICAL,"SHOP NO.2A,S.NO.644,HISSA NO.1B/1","DAMODAR SOC,BLDG 6",PUNE,
371,ANAND MEDICAL DISTRIBUTORS,MAITRI  MEDICAL,SH.NO. 4 TILT FLOOR   SHREE RESIDENCY,NARHE,PUNE,
372,ANAND MEDICAL DISTRIBUTORS,SAFELIFE MEDICO & GEN STORES,SH.NO. 386 VARIS HIEGHT,NITYANAND SOCIETY,PUNE,
373,ANAND MEDICAL DISTRIBUTORS,J.J.MEDICALS,"SR.NO.43,PATHARE TUBE NAGAR,",JEEVANJYOTI MULT.HOSP,PUNE,
374,ANAND MEDICAL DISTRIBUTORS,POONA DRUG HOUSE,"SHOP NO.8,PRASUN CORNER","GANPATI CHOWK,VIMAN NAGAR",PUNE,
375,ANAND MEDICAL DISTRIBUTORS,GANESH MEDICO & GEN.STORES,B.T.KAVADE ROAD GHORPADI PUNE1,SHOP.NO.1 MEDICA PARK BLD NO B,PUNE,
376,ANAND MEDICAL DISTRIBUTORS,NEW NOBLE CHEMIST,"SH.NO.4,PLOT NO.105B,S.NO.199/204,","SIDHARTH REGAL HOME,",PUNE,
377,ANAND MEDICAL DISTRIBUTORS,MEDI-LIGHT MEDICAL,SH.NO. 1 GR. FLOOR BESIDE NARAYANI HOSPITAL,BHOPLE CHOWK   WARJE,PUNE,
378,ANAND MEDICAL DISTRIBUTORS,SHREE GANESH MED & GEN STORES,FURSUNGI GANGANAGAR,"HADAPSAR PUNE, HADAPSAR-1",PUNE,
379,ANAND MEDICAL DISTRIBUTORS,VIGHNAHAR MED & GEN STORES,SH.NO. 4 GR. FL. DEV COM. LANE NO. 4,SWAMI SAMARTH NAGAR SATHE VASTI,PUNE,
380,ANAND MEDICAL DISTRIBUTORS,PAWAN MEDICALS & GEN ST,ERANDWANE NEAR MHATRE BRIGDE,KARVENAGAR,PUNE,
381,ANAND MEDICAL DISTRIBUTORS,SAMRUDHI MEDICALS,YEWAT,", JEJ & LON",PUNE,
382,ANAND MEDICAL DISTRIBUTORS,ISHWARI MED.& GEN.STORES,GR.FLR.SHOP NO.2 RANJANA CO.OP SOC,KATRAJ KONDHWA ROAD,PUNE,
383,ANAND MEDICAL DISTRIBUTORS,NAMRATA MED & GEN STORES,AMBEGAON PATAR SUR.NO.15,TORAN VIHAR SHOP 3 PUNE 46,PUNE,
384,ANAND MEDICAL DISTRIBUTORS,VIKAS MED.& GEN.STORES,"VISHRANTWADI,ALANDI ROAD","PUNE-15, VISHTANTHWADI",PUNE,
385,ANAND MEDICAL DISTRIBUTORS,JIJAYEE MEDICAL,"SHOP NO.1,HOUSE NO.118.GR.FLR.",NEAR SAI SNEH HOSP.,PUNE,
386,ANAND MEDICAL DISTRIBUTORS,VIKASMEDICALS KIWALE,0,0,0,
387,ANAND MEDICAL DISTRIBUTORS,SUNMITRA MEDICALS,MANGALWAR PETH,"BHOR, BHOR.",PUNE,
388,ANAND MEDICAL DISTRIBUTORS,DARSHAN MEDICO,"S.NO.2,DABHADE VASTI","BAIF ROAD,WAGHOLI",PUNE,
389,ANAND MEDICAL DISTRIBUTORS,SUYASH MED.& GEN.STORES,"GR.FL.SHOP NO.2,SUNIL NIWAS,MIL NO.883","WARD NO.2,OPP VITHAL MANDIR,",PUNE,
390,ANAND MEDICAL DISTRIBUTORS,SATVIK MEDICALS,GADITAL HADAPSAR,"KANCHAN PLAZA, HADAPSAR-1",PUNE,
391,ANAND MEDICAL DISTRIBUTORS,KRUSHNAI MEDICAL,"JANTA VASAHAT,LANE NO.47,","OPP.P.M.C.SCHOOL,PARVATI",PUNE,
392,ANAND MEDICAL DISTRIBUTORS,SUNIL MEDICAL,BOPKHEL,0,PUNE,
393,ANAND MEDICAL DISTRIBUTORS,GREEN CHEMIST.,"SHOP NO.3 & 4,SATHE WASTI",LOHEGAON,PUNE,
394,ANAND MEDICAL DISTRIBUTORS,NEW LAXMI MEDICAL,WADGAON SHERI  DEEPAK RESI,VADGAON SHERI,PUNE,
395,ANAND MEDICAL DISTRIBUTORS,AGARWAL MEDICAL,"HADAPSAR,GADITAL",", HADAPSAR-1",PUNE,
396,ANAND MEDICAL DISTRIBUTORS,MAHAVIR MED & GEN STORES,BHIGWAN,KONDHWA BK. PUNE-28,PUNE,
397,ANAND MEDICAL DISTRIBUTORS,MAHAVEER MEDICO,"SHOP NO.25&26,GR.FLR.UNDRI CITY CENTER",UNDRI,PUNE,
398,ANAND MEDICAL DISTRIBUTORS,SUYOG MEDICAL STORES,GR.FL.SH.NO. NR. ACHAL FARM,AMBEGAON KURD,PUNE,
399,ANAND MEDICAL DISTRIBUTORS,SHREE ARIHANT MEDI STORES,KARVENAGAR,"PUNE, POUD ROAD",PUNE,
400,ANAND MEDICAL DISTRIBUTORS,NITIN MEDICALS,"SHOP NO.1,H.NO.1/754,S.NO.21/4","RAGHO PATIL NAGAR,",PUNE,
401,ANAND MEDICAL DISTRIBUTORS,SWASTIK MEDICAL.,SR.NO.26 LAXMI NAGAR,DHANUKAR COLONY,PUNE,
402,ANAND MEDICAL DISTRIBUTORS,PAVAN MEDICO.,"SHOP NO.2&3,GR.FLR.M.NO.2/0635,2/0636",LONKAR WASTI KESHAV NAGAR,PUNE,
403,ANAND MEDICAL DISTRIBUTORS,WAGHESHWAR MEDICO & GENERAL STORE,SHOP.NO.2 LANE NO.16 WORD NO.1,UBLE NAGAR,PUNE,
404,ANAND MEDICAL DISTRIBUTORS,PHARMACY 27 OF VANADIUM PHARMACEUTICALS PVT LTD,SH.NO. 1 GR.FL NR. AAISAHEB VAISHNAVI NUR. HOME,KADAMVAKVASTI,PUNE,
405,ANAND MEDICAL DISTRIBUTORS,SHANIKRUPA MED & GEN STORES,OLD JAKAT NAKA,"KULKARNI HOPITAL PUNE, KARVE NAGAR",PUNE,
406,ANAND MEDICAL DISTRIBUTORS,MEDZONE PHARMA,GR.FLR.SHOP NO.2.C PRIYANKA BHAVAN,SHIVAJI ROAD,PUNE,
407,ANAND MEDICAL DISTRIBUTORS,RIYA MEDICAL,"SHOP NO.2,SHRIMANT KRUPA NIVAS",SANT DNYANESHWAR NAGAR,PUNE,
408,ANAND MEDICAL DISTRIBUTORS,NEW GUJAR PHARMACUETICALS,SADASHIV PETH,"PUNE  4485040, WHOLSALE",PUNE,
409,ANAND MEDICAL DISTRIBUTORS,YANVI MEDICO,"SHOP NO.1A,CTS NO.959,GROUND FLOOR,","PAWANPUTRA SAHK.GRUHRACHANA SANSTHA,",PUNE,
410,ANAND MEDICAL DISTRIBUTORS,YASHASHREE MED.& GEN.STORES,YEWAT,DIST PUNE,PUNE,
411,ANAND MEDICAL DISTRIBUTORS,SHREYA MED & GEN STO [CASH] CHIKHALI.[ SAYYAD] [Z],0,0,0,
412,ANAND MEDICAL DISTRIBUTORS,VAISHNAV MEDICALS,"SR.NO.75-6-2,OM NAMO SANKUL BLDG",RAYKAR MALA,PUNE,
413,ANAND MEDICAL DISTRIBUTORS,PRISHA MEDICAL,"SHOP NO.29,NR SHLOK HOSPITAL,","KONDHANPUR ROAD,KHED SHIVAPUR",PUNE,
414,ANAND MEDICAL DISTRIBUTORS,SHREERAM MEDICALS,DHANKAVDI,"PUNE, CAMP",PUNE,
415,ANAND MEDICAL DISTRIBUTORS,LIFE CARE MED & GEN STORES,AMBEGAON BK.,"PUNE 411046, KATRAJ",PUNE,
416,ANAND MEDICAL DISTRIBUTORS,MAYURESH MED.& GEN.STORES,"WARJE,SHOP.NO.4,SHREEYA PLAZA",WARJE,PUNE,
417,ANAND MEDICAL DISTRIBUTORS,SHRI YOGIRAJ MEDICO,"SHANI NAGAR CHOWK,",JAMBHULWADI ROAD,PUNE,
418,ANAND MEDICAL DISTRIBUTORS,HANUMAN MED & GEN STORES,WARJE RAMNAGAR,"TULJA BHAWANI CHOWK PUNE, WARJE MALWADI",PUNE,
419,ANAND MEDICAL DISTRIBUTORS,MAHADEV MEDICO,FLAT.NO. 25/235/A YERWADA,NR.AMBEDKAR CHOWK,PUNE,
420,ANAND MEDICAL DISTRIBUTORS,SAMARTH CHEMIST,"SHOP NO.1,MILKAT NO.01579","NANDED GAON,NIRMALA HEIGHTS",PUNE,
421,ANAND MEDICAL DISTRIBUTORS,DNYANESHWARI MED STORES,MIL. 596 GANESH VIHAR,IST FLOOR GALA 6,PUNE,
422,ANAND MEDICAL DISTRIBUTORS,YESHWANT MEDICALS,SH.NO1 H.NO.3/94 LAXMI MATA CHOWK,SINGHGAR RD. VADGAON BHUDRUK,PUNE,
423,ANAND MEDICAL DISTRIBUTORS,SARVESHWAR MED & GEN STORES,SH.NO8 SHREE DEVELOPERS,KAPURHOL,PUNE,
424,ANAND MEDICAL DISTRIBUTORS,PREETAM MEDICAL STORES,KHADKI,"PUNE, KHADKI",PUNE,
425,ANAND MEDICAL DISTRIBUTORS,DNYANESHWARI MEDICAL,"SHOP NO.1,GR.FLOOR,PAWAN PLAZA,WING A-B,",POWER HOUSE ROAD.FRUSHING,PUNE,
426,ANAND MEDICAL DISTRIBUTORS,NEW PUNE MEDICO,S.NO.520/2 BH.STYANAND HOSPITAL,NEW PUNE HOSPITAL OPP E-SQUARE,PUNE,
427,ANAND MEDICAL DISTRIBUTORS,ANISHA MEDICAL,"LOTUS CLINIC,OFFICE NO.2,",GR.FLR.NEXT TO CANARA BANK,PUNE,
428,ANAND MEDICAL DISTRIBUTORS,MEDIHOME MEDICAL STORE,"SHOP NO.9, ISHANA 2.SHINDE NAGAR BHUSARI COLONY",BHUSARI COLONY,PUNE,
429,ANAND MEDICAL DISTRIBUTORS,NAEEM MED & GEN STORE  [5],"PHURSUNGI,AP.GANGANAGAR,",", OUT",PUNE,
430,ANAND MEDICAL DISTRIBUTORS,VIJAYALAXMI MEDICO,"SHOP NO.2,GR.FLR.NEW 1424 SHIVARKAR NIWAS","PLOHEGAON ROAD,WAGHOLI",PUNE,
431,ANAND MEDICAL DISTRIBUTORS,JUPITER PHARMA,105 METRO HOUSE,MANGALDAS ROAD,PUNE,
432,ANAND MEDICAL DISTRIBUTORS,RICHFEEL PHARMACY,"SKYMAX BUILDING,SHOP NO.6&7",LOHGAON ROAD,PUNE,
433,ANAND MEDICAL DISTRIBUTORS,PUROHIT MEDICALS & GEN STORE,KONDHWA ROAD RAJA MAHAL PUNE,", KONDHWA",PUNE,
434,ANAND MEDICAL DISTRIBUTORS,AAYUSH PHARMA,IST FLOOR SWAYAM HOS.  DINSHAW APP,BHAVANI PETH,PUNE,
435,ANAND MEDICAL DISTRIBUTORS,VASU MED GEN STORES,4KOTHRUD,27AAIPD2088H1ZQ,4KOTHRUD,
436,ANAND MEDICAL DISTRIBUTORS,SANJAY MEDICO..,"DHANRAJ COMPLEX,SHOP NO.2","KESNAND ROAD,J.J.NAGAR",PUNE,
437,ANAND MEDICAL DISTRIBUTORS,MAHI MED.& GEN.STORES,SONAI RESIDENCY,NAVYOG COLONY,PUNE,
438,ANAND MEDICAL DISTRIBUTORS,EKDANT MEDICAL,"SHOP NO.4,KUSHAL VATIKA",PUNE SOLAPUR ROAD,PUNE,
439,ANAND MEDICAL DISTRIBUTORS,NOVACURE INDIA PVT LTD,NIBM ROAD,KONDHWA,PUNE,
440,ANAND MEDICAL DISTRIBUTORS,GUNJAN MEDICAL & GENERAL STORE,SHOP.NO.3&4.GR.FLR.S.NO.178.PROP.NO.28148,BALAJI HEIGHTS BHOSALE VILLAGE.FURSUNGI.,PUNE,
441,ANAND MEDICAL DISTRIBUTORS,R.K.MEDICAL,GUJRAT COLONY KOTHRUD,"PUNE 29, POUD RD.2",PUNE,
442,ANAND MEDICAL DISTRIBUTORS,SIDDHIVINAYAK MEDICAL.,"SHOP NO.5,GR.FLR,RAJMATA JIJAU COMPLEX,",NDA ROAD,PUNE,
443,ANAND MEDICAL DISTRIBUTORS,CHIRANTAN PHARMA,AMBEGAON BK.KATRAJ,0,PUNE,
444,ANAND MEDICAL DISTRIBUTORS,SURYA MEDICO & GEN.STORES,LOANKAR WASTI,MANJARI ROAD,PUNE,
445,ANAND MEDICAL DISTRIBUTORS,SHATATARKA MEDICAL,"SHOP NO.3,MAULI KRUPA BULD,",DANGAT INDUSTRIAL ESTATE,PUNE,
446,ANAND MEDICAL DISTRIBUTORS,CRESCO HEALTHCARE LLP,"SHOP NO.3, SHOP NO. 1376 TO 1394, PRERANA BUILDING,","NEAR CHIMNYA GANPATI CHOWK SADASHIV PETH,PUNE-411030",PUNE,
447,ANAND MEDICAL DISTRIBUTORS,CROWN HEALTH WORLD,SH.NO. 104 S.NO. 177/1 FIRST FR. NARAYAN CHAMBER,NAMDEV RUKARI BAUG  FURAUNGI,PUNE,
448,ANAND MEDICAL DISTRIBUTORS,SHAM MEDICAL & GEN STORES,"105,KONDHWA KHURD",KONDHWA,PUNE,
449,ANAND MEDICAL DISTRIBUTORS,NEW PRATHMESH MEDICAL STORES,"SHINDVANE ROAD,URLI KANCHAN",TAL.HAVELI DIST,PUNE,
450,ANAND MEDICAL DISTRIBUTORS,SONALI MED.& GEN.STORES,"SHOP NO.A/S7A,ASHOKNAGAR,BLD-A","KHARADI BYPASS,KHARADI",PUNE,
451,ANAND MEDICAL DISTRIBUTORS,SHREE MEDI & GEN STOES,SHOP.NO.2 SR.NO.22/A1.H.NO.22/4,"CHAVAN NIVAS , DHANKAWADI",PUNE,
452,ANAND MEDICAL DISTRIBUTORS,HIRA MEDICO,"BIBVEWADI ROAD,BELOW AARYAN SCHOOL",NEXT TO IDBI BANK,PUNE,
453,ANAND MEDICAL DISTRIBUTORS,ANAND MED. CHEMIST & DRUGGIST,"SHOP NO.1&2,SHRIDHAR COLONY",KARVENGAR,PUNE,
454,ANAND MEDICAL DISTRIBUTORS,NEW TRISHAKTI MEDICAL,KONDHAWA KHURD,"PUNE -48, KONDHWA",PUNE,
455,ANAND MEDICAL DISTRIBUTORS,SANTOSH MEICALS & GEN STORES,"SR.NO.35,HISSA NO.13,PART OF SHOP NO 1&2",IN FRONT OF VITHAI MANGAL KARYALAYA,PUNE,
456,ANAND MEDICAL DISTRIBUTORS,RAJ MEDICAL.,SHOP NO.30.GR.FLR.PLOT NO.105,"KUMAR PINNACLE,TADIWALA ROAD",PUNE,
457,ANAND MEDICAL DISTRIBUTORS,SHRI SWAMI SAMARTH MEDICAL.,"SHOP NO-4,GR. FLR. VENKATESH HIGHTS ,HAGAWANENAGAR,",WADGAON BUDRUK,PUNE,
458,ANAND MEDICAL DISTRIBUTORS,PRAPTI MEDICAL & GEN.STORES,"385,WADARWADI,SHIVAJINAGAR",PUNE-16,PUNE,
459,ANAND MEDICAL DISTRIBUTORS,VARUNA PHARMACEUTICALS,SH.NO2 GR.FL. 992 SADASHIV PETH,SADASHIV PETH,PUNE,
460,ANAND MEDICAL DISTRIBUTORS,SANJIVANI MED & GEN STORES,"SHOP NO.7,KAILASH SOCIETY,",SHASTRI NAGAR,PUNE,
461,ANAND MEDICAL DISTRIBUTORS,JANSEVA MEDICAL & GEN STOR,SR.NO.42.SANT GADGE MAHARAJ,VASAT,PUNE,
462,ANAND MEDICAL DISTRIBUTORS,MAHAVIR MEDICAL.,"SHOP NO.1,STILT FLOOR,","GOLDEN ROCK,GANESH NAGAR",PUNE,
463,ANAND MEDICAL DISTRIBUTORS,PAYAL MED & GEN STORES,BAWDHAN NDA PASHAN RD,"PUNE, BHAVDHA/RAMNAGA",PUNE,
464,ANAND MEDICAL DISTRIBUTORS,HELLO MEDICO CHEMIST & DRUGGIST,SHOP.NO.1.GR FLR. SHINDE RESIDENCY' BALAJI,VIHAR KESHAND ROAD,PUNE,
465,ANAND MEDICAL DISTRIBUTORS,MAXCARE CHEMIST & DRUGGIST,"SHOP NO.4&5,GR.FLR. RAMMURTI COMPLEX,","AUNDH ROAD,BOPODI",PUNE,
466,ANAND MEDICAL DISTRIBUTORS,NEW PRITAM MEDICAL,"AMRAPALI APPT.,BHUSARI COLONY,","PAUD ROAD,PUNE, POUD ROAD (KOTH",PUNE,
467,ANAND MEDICAL DISTRIBUTORS,SAI MEDICALS.,"SHOP.NO.17,NANAK NIWAS",BALAJI NAGAR,PUNE,
468,ANAND MEDICAL DISTRIBUTORS,SWAYAMBHU MEDICALS,PIMPALGAON,DAUND,PUNE,
469,ANAND MEDICAL DISTRIBUTORS,PURVA MED & GEN STORES,KHARADI RAGOBA PATIL NAGAR,PUNE 411014,PUNE,
470,ANAND MEDICAL DISTRIBUTORS,RAJ MED.& GEN.STORES,"R-6/851/A,CHANDRA NAGAR",MATE NAGAR,PUNE,
471,ANAND MEDICAL DISTRIBUTORS,KIMAYA MEDICAL,SHOP.NO.02 KATE COMPLEX KONDHWA KATRAJ,KONDHWA KATRAJ,PUNE,
472,ANAND MEDICAL DISTRIBUTORS,VYANKTESH MED & GEN STORES,SH.NO.2 SATYABA COMP. NARAYAN NAGAR,PHURSUNGI,PUNE,
473,ANAND MEDICAL DISTRIBUTORS,SOURABH MED & GEN STORES [174],PRARIML C O OP HOU.SOC,POUD ROAD,PUNE,
474,ANAND MEDICAL DISTRIBUTORS,VIGHANAHARTA MEDICAL STORES,"1ST FLOOR,VIGHANAHARTA MULTI SP HOSPITAL","PLOT NO.5,MAHESH SOCIETY,OPP PETROL PUMP",PUNE,
475,ANAND MEDICAL DISTRIBUTORS,PATHARE MEDICALS,"HANDEWADI ROAD,  UDYOGNAGAR",HADAPSAR,PUNE,
476,ANAND MEDICAL DISTRIBUTORS,SHREE SADGURU MEDI & GEN.STORE,WAGHOLI.PRO. NO4/0155 SH NO1,"TAL HAVELI PUNE, SHIRUR/GODNADI",PUNE,
477,ANAND MEDICAL DISTRIBUTORS,SURENDRA MEDICAL STORES,PAUD ROAD,"PUNE, POUD ROAD (KOTH",PUNE,
478,ANAND MEDICAL DISTRIBUTORS,ASHIRWAD MEDICAL.,"SHOP NO.1,UPPER GR.FLR.GANPATI MATHA","NDA ROAD,WARJE MALWADI",PUNE,
479,ANAND MEDICAL DISTRIBUTORS,KRISHNA MEDICO.,"SHOP NO.8,MANAK MARKET","OPP HONEY HOTEL,NEAR PATIL VADEWALE",PUNE,
480,ANAND MEDICAL DISTRIBUTORS,SANVEE MEDICAL STORES,"SHOP NO.1,GR.FLR.H.NO.308 SUYOG NIWAS APPT","K.P.NAGAR,DHANKAWADI",PUNE,
481,ANAND MEDICAL DISTRIBUTORS,KALA MEDICO,KAMDHENU ESTATE HADAPSAR,HADPASAR,PUNE,
482,ANAND MEDICAL DISTRIBUTORS,JAYDEEP MEDI & GEN STORES,WARJE MALWADI,WARJE MALWADI,PUNE,
483,ANAND MEDICAL DISTRIBUTORS,SOURABH MEDICALS,"22, SOMWAR PETH","PUNE, RASTA PETH",PUNE,
484,ANAND MEDICAL DISTRIBUTORS,MORYA MEDICAL..,"SHOP NO.1,GR.FLR.MULLK SADAN,","GANJWE CHOWK,NAVI PETH",PUNE,
485,ANAND MEDICAL DISTRIBUTORS,SAI-YASH MED & GEN STRORES,KOTHRUD SHASTRINAGAR,"NEAR ASHISH GARDEN PUNE, KARVE ROAD",PUNE,
486,ANAND MEDICAL DISTRIBUTORS,SHIVDATTA MEDICAL.,"SHOP NO.7,GROUND FLOOR,",VAIDUWADI,PUNE,
487,ANAND MEDICAL DISTRIBUTORS,SIDDHARTH MED.GEN. STORES,SADASHIV PETH,"PUNE  30, RETAIL",PUNE,
488,ANAND MEDICAL DISTRIBUTORS,GARWARE MED & GEN.STORES,VISHNU-KRUPA TAWARE COLONY,SAHAKARNAGAR,PUNE,
489,ANAND MEDICAL DISTRIBUTORS,RAGHUNATH MED & GEN STORE,ANAND NAGAR,"VISHWAS GARDEN, VITTHALWADI",PUNE,
490,ANAND MEDICAL DISTRIBUTORS,MAMTA MEDICAL.,"SHOP.NO.1&6,SHREE GANESH PARK,","NO.2,SR.NO.29/1,SASANE NAGAR,",PUNE,
491,ANAND MEDICAL DISTRIBUTORS,HETVI MEDICINE HOUSE,"SHOP NO.1,PREMKRUPA BLDG,","7141A BHAWANI PETH,",PUNE,
492,ANAND MEDICAL DISTRIBUTORS,REKHA MED & GEN STORES,SH NO1 SIDDHI ARCADE  NR. ARUN BAUG,NARHE,PUNE,
493,ANAND MEDICAL DISTRIBUTORS,RAMKRISHNA MEDICAL & GEN STORE,SAMARTH SADAN. SHOP. NO.18 INFRONT OF MODAK,VASTI BUS STOP JAMBHULWADI ROAD AMBEGAON KH,PUNE,
494,ANAND MEDICAL DISTRIBUTORS,NATH MED & GEN STORES,DHANKAWADI EAST,"PUNE-43, DHANKAWADI",PUNE,
495,ANAND MEDICAL DISTRIBUTORS,ANISH MEDICAL STORES,KOTHRUD,"POONA, KARVE ROAD",PUNE,
496,ANAND MEDICAL DISTRIBUTORS,SHRI DHANVANTARI MEDICAL,RASTA PETH,"PUNE, RASTA/SOM/KASBA",PUNE,
497,ANAND MEDICAL DISTRIBUTORS,SAIKIRAN MEDICAL,309-A SHUKRAWAR PETH,"DHRUVIJ CLINIC SEVA MANDAL, GHORPADE PETH [",PUNE,
498,ANAND MEDICAL DISTRIBUTORS,DAKSH MEDICAL,PAPADE WASTI,", HADPSAR -2",PUNE,
499,ANAND MEDICAL DISTRIBUTORS,SHREE FATHYGIRI MED & GEN STORES,SH.NO.2 SR.177 PUNE SAWWAD RD,BHEKRAI NAGAR,PUNE,
500,ANAND MEDICAL DISTRIBUTORS,HEENA MEDICAL STORE,"SHOP.NO.1,LANE NO.13",SAYYAD NAGAR,PUNE,
501,ANAND MEDICAL DISTRIBUTORS,WELLCARE PHARMA,SH.NO. 7/8/9&10 GR.FR. T SQUARE BLD,TUPE PATIL RD SADW SATRA NALI,PUNE,
502,ANAND MEDICAL DISTRIBUTORS,M.V. MED & GEN STORES,DATTANAGAR JAMBULWADI,"PUNE, 1",PUNE,
503,ANAND MEDICAL DISTRIBUTORS,PRASANNA MEDICALS,HADAPSAR.,", HADAPSAR-1",PUNE,
504,ANAND MEDICAL DISTRIBUTORS,LIFELINE MED & GEN STORES,"PARAS NURSING HOME,GULABNAGAR","SUNDARPARK,DHANKAWADI",PUNE,
505,ANAND MEDICAL DISTRIBUTORS,PISTOS HEALTHCARE PVT.LTD.,"SHOP NO.20,SR.NO.45,43&44/1,","THREE JEWELS SOC,TILEKAR NAGAR,",PUNE,
506,ANAND MEDICAL DISTRIBUTORS,SHUSHTI MEDICAL,SH.NO. 3 FRONT OF BHUMI ABHILEKH KARALAYA,NAGAR MORI CHOWK,PUNE,
507,ANAND MEDICAL DISTRIBUTORS,MATAJI MED.& GEN.STORES,SUKHSAGAR NAGAR SHOP NO.1,TULSI SUNGANDHA APPT.PUNE 46.,PUNE,
508,ANAND MEDICAL DISTRIBUTORS,ARCUS HOSPITAL MEDICAL STORE,"FLORA VALLEY,NEAR KEDARI PETROL PUMP",WANWADI,PUNE,
509,ANAND MEDICAL DISTRIBUTORS,SHIV SADHANA MED & GEN STORES,WANAWADI PARMAR APPT SHOP -6,VANVADI,PUNE,
510,ANAND MEDICAL DISTRIBUTORS,VISHWAS MEDICO,"GR.FL.SHOP NO.3,MILKAT NO.1231/3,G WING,","KISHORI PARK PUNE, PERANE(KARVENAG",PUNE,
511,ANAND MEDICAL DISTRIBUTORS,PLANET HEALTH PHARMA,SHOP NO. 36 STRELING CENTRE M.G ROAD CAMP,0,PUNE,
512,ANAND MEDICAL DISTRIBUTORS,RATNAPRABHA MEDICALS & GEN STORES,"SHOP NO.5,RAJVISHWA COMPLEX",BHEKRAINAGAR,PUNE,
513,ANAND MEDICAL DISTRIBUTORS,R.J MEDICO,SHOP.NO.{1}GANESH NAGAR,NEAR GANESH TEMPLE RAISONI COLLAGE ROAD,PUNE,
514,ANAND MEDICAL DISTRIBUTORS,D.B.MEDICAL,A/P YAWAT.TAL DAUND,DAUND,PUNE,
515,ANAND MEDICAL DISTRIBUTORS,KRUSHN-PRABHU MEDICAL STORES,"BUILDING NO.64,GALA NO.505(93/01)","MAHARASHTRA HOUSING BOARD,",PUNE,
516,ANAND MEDICAL DISTRIBUTORS,QUANTIME WORLD PVT LTD,SH.NO.306/ 3 RD FL. GAT NO. 559/1,OPP TO BJS COL. NSGSR RD,PUNE,
517,ANAND MEDICAL DISTRIBUTORS,ARIHANT MEDICALS.,"MALHARGAD CHOWK,KAMTHENAGAR,","KONDHAWA BK.,PUNE-48",PUNE,
518,ANAND MEDICAL DISTRIBUTORS,SHREE MEDICAL & GEN STORES,AT POST MUTHA,"TAL MULSHI DIST PUNE, MAVAL",PUNE,
519,ANAND MEDICAL DISTRIBUTORS,JAY GANESH MEDICAL.,"SHOP NO.2,THORAT COMPLEX",KUNJIRWADI,PUNE,
520,ANAND MEDICAL DISTRIBUTORS,SANDEEP MED STR [ST.DIS] CHINCHWAD.9850655841,0,0,0,
521,ANAND MEDICAL DISTRIBUTORS,ASHWARANJAN MED.& GEN.STORES,"SHOP NO.2,GULAB NIWAS,KAVADIPAT","KADAMWAK VASTI,URLIKANCHAN",PUNE,
522,ANAND MEDICAL DISTRIBUTORS,SHREE SAMRUDHI MEDICAL[ST.DIS],LOHEGAON. [9021468910],MIL NO 1210 SHOP NO 1 SUNDARBAN SADAN SHIV NAGAR PUNE.,0,
523,ANAND MEDICAL DISTRIBUTORS,JAGADAMB MEDICAL,"SR.NO.36,YASHVANT NAGAR",KHARADI,PUNE,
524,ANAND MEDICAL DISTRIBUTORS,BHAGYASHRI MEDICAL,KOTHRUD 122 SWAPNIL PARK,"SHOP NO.4, STATION",PUNE,
525,ANAND MEDICAL DISTRIBUTORS,SHOBHA MED & GEN STORES,YERAWDA J.J.CHAMBER,SHOP 3 PUNE-6,PUNE,
526,ANAND MEDICAL DISTRIBUTORS,UROZOONE MEDICO,OFF NO. 102 1ST FR. TOWN SQUARE,231/1 VIMANNAGAR   LOHGAON,PUNE,
527,ANAND MEDICAL DISTRIBUTORS,MEDICINE WORLD.,"SHOP NO.5,GR.FLR.RAVIRAJ BULD.",RAKSHAK NAGAR,PUNE,
528,ANAND MEDICAL DISTRIBUTORS,RAJESHWARI MEDICAL,SHUKRAWAR PETH,", 1",PUNE,
529,ANAND MEDICAL DISTRIBUTORS,SHWAS MEDICAL,SH.NO.2  GR.FLOOR   SAI DARSHAN PARK,KRISHNA NAGAR  SANE CHOWK  CHIKHALI,PUNE,
530,ANAND MEDICAL DISTRIBUTORS,JAYANT & CO,BUDHWAR PETH,"LAXMI ROAD, BUDHWAR PETH",PUNE,
531,ANAND MEDICAL DISTRIBUTORS,VEDIKA MEDICALS STORES,SHOP NO.1.GR.FL.SR.NO36/2/1/18,SHIV SHAMBHO NAGAR,PUNE,
532,ANAND MEDICAL DISTRIBUTORS,EMERLION PHARMA,DANORI,DANORI,0,
533,ANAND MEDICAL DISTRIBUTORS,SHREE KRUSHNA MEDICO,MATALWADI PHATA,BHUGAON,PUNE,
534,ANAND MEDICAL DISTRIBUTORS,GURUKRIPA MED. & GEN.STORE,URALI KANCHAN,"PUNE, SOLAPUR ROAD",PUNE,
535,ANAND MEDICAL DISTRIBUTORS,SUKHADA MEDICAL,WARJE MALWADI,WARJE MALWADI,PUNE,
536,ANAND MEDICAL DISTRIBUTORS,YOGI MEDICAL,"SHO NO.17,YASHRAJ,GREEN CASTLE,","S.NO.35,KALE PADAL",PUNE,
537,ANAND MEDICAL DISTRIBUTORS,KISHOR CHEMIST,"GR.FL.SHOP NO.1 & 2,SARAS NIWAS","SHIVAJI CHOWK,KESHAV NAGAR,MUNDHWA",PUNE,
538,ANAND MEDICAL DISTRIBUTORS,PRASAD MEDICAL.,"SHOP NO.4,DHANVANTARI PLAZA,",BHOR,PUNE,
539,ANAND MEDICAL DISTRIBUTORS,ANMOL MEDICAL STORE,"SHOP NO.G-26 A,UPPER GR.FLR","MANGONEST,2P GROUND NEAR LOAKMAT BHAVAN",PUNE,
540,SWASTIK MEDICAL STORES,ARNAV MED & GEN ST,KESHAVNAGAR,CHINCHWAD,,
541,SWASTIK MEDICAL STORES,CHAMAN MED,AUNDH,8668981771/98904750 AUNDH,,
542,SWASTIK MEDICAL STORES,DIGAMBAR MED & GEN ST,THERGAON,0,,
543,SWASTIK MEDICAL STORES,DURGA MEDICO,LONAVALA 76887,9370000000,,
544,SWASTIK MEDICAL STORES,GURURAJ MEDICAL&GEN STR,CHINCHWAD,0,PCMC,
545,SWASTIK MEDICAL STORES,JAY MEDICAL& GEN STORES CHINCHWADENAGAR CHINCHWAD,0,0,0,
546,SWASTIK MEDICAL STORES,KASTURI MEDICAL & GENERAL,CHINCHWAD,9890101365 PUNE,,
547,SWASTIK MEDICAL STORES,KAVYA MEDICAL,DIGHI,0,,
548,SWASTIK MEDICAL STORES,MAHALAXMI MEDICO,KALEWADI,"RAHATNI ROAD,SHRINAGAR. KALEWADI.PUNE 17.",,
549,SWASTIK MEDICAL STORES,MANALI MED & GEN STORES [CASH],DEHUGAON [8975764681][SHIVANI],MALVADI                                                       MALVADI,0,
550,SWASTIK MEDICAL STORES,MARUTI MEDICO,TATHWADE WAKAD,0,,
551,SWASTIK MEDICAL STORES,MEGA MEDICAL,HINJAWADI,0,,
552,SWASTIK MEDICAL STORES,PARAS MEDICAL & GEN. STOR,PIMPLE GURAV,27274029/9423507015,PCMC,
553,SWASTIK MEDICAL STORES,PURABJI MEDICAL & GEN STORES,BOPKHEL,0,,
554,SWASTIK MEDICAL STORES,SAGAR MEDICAL & GEN STORES,PAWAR NAGAR THERGAON,7057438385,PCMC,
555,SWASTIK MEDICAL STORES,SAKSHI MED & GEN STORES,PIMPLE GURAV,8308311429 /8669119652 9921944525,PCMC,
556,SWASTIK MEDICAL STORES,SHREE BHAIRAVNATH MEDICAL,DEHU-ROAD,0,,
557,SWASTIK MEDICAL STORES,SHREE SEVA MEDICAL,SANGAVI,9880000000,,
558,SWASTIK MEDICAL STORES,SHRI GAURAV MED & GEN STO,DEHU ROAD,9970000000,,
559,SWASTIK MEDICAL STORES,SHRI RAM MED & GEN STORES,DIGHI,0,,
560,SWASTIK MEDICAL STORES,SIDDIVINAYANAK MED & GEN ST,RAHATANI,0,PCMC,
561,SWASTIK MEDICAL STORES,VARDHAMAN MED & GEN ST,CHINCHWAD,0,PCMC,
562,SWASTIK MEDICAL STORES,VARSHA MED & GEN ST.,KURULI,MANCHAR,PCMC,
563,SWASTIK MEDICAL STORES,CHINCHWAD STATION PUNE19,0,0,0,
564,SWASTIK MEDICAL STORES,HEALTH LIFE MEDICAL,NAKATE VASTI,RAHATANI,PCMC,
565,SWASTIK MEDICAL STORES,MATHOSHREE MEDICO,BALEWADI,0,,
566,SWASTIK MEDICAL STORES,S.K.MEDICAL,DEHUGAON,0,,
567,SWASTIK MEDICAL STORES,SHRADDHA MEDICALS.,LONAVALA,9623860302,PCMC,
568,SWASTIK MEDICAL STORES,SHREE MED & GEN.ST [MAULI],AKURDI R,"27240033,MAULIKRIPA, AKURDI",,
569,SWASTIK MEDICAL STORES,SHREEKRUPA MED ST,DEHUGAON,0,,
570,SWASTIK MEDICAL STORES,SHRIYASH MEDICAL & GEN. STORES,BHOSARI. 9730199111,"DR.DESAI HOSPITAL,SADGURUNAGAR",PCMC,
571,SWASTIK MEDICAL STORES,TULJAI MED & GEN ST,DEHUGAON,0,PCMC,
572,SWASTIK MEDICAL STORES,VASANTI MEDI & GEN STORES,CHINCHWAD STN.,9850289577/27470094,PCMC,
573,SWASTIK MEDICAL STORES,DEVIPRASAD MED & GEN STO [CASH,RUPEENAGAR.[9175429890],"S.NO.22,NEAR SOMESHWER TEMPLE, PUNE-44",0,
574,SWASTIK MEDICAL STORES,MEDICARE MEDICAL& GEN STORES,DIGHI ( SANT GAJANAN MAHARAJ),0,,
575,SWASTIK MEDICAL STORES,NEEL MEDICAL & GEN STORES,MOREVASTI CHIKHALI,0,,
576,SWASTIK MEDICAL STORES,SAI RAM MED & GEN ST,THERGAON,0,,
577,SWASTIK MEDICAL STORES,SANSKRUTI PHARMACEUTICAL,RAHATANI,0,,
578,SWASTIK MEDICAL STORES,SHIVAI MEDICAL,CHIKHLI,RAMDASNAGAR,,
579,SWASTIK MEDICAL STORES,SHREE GAGANGIRI MEDICALS,PIMPRI,0,,
580,SWASTIK MEDICAL STORES,SUYASH MEDICAL,NIGDI,27654475/9371078992,,
581,SWASTIK MEDICAL STORES,YASHASHREE MED.& GEN STO [CASH,CHINCHWAD. [VISHNU][M],"BILD NO 9,SHOP NO SII,OFF GAT  TRANSPORT AJANTANAGAR PUNE-19",0,
582,SWASTIK MEDICAL STORES,DURVANKUR  MEDICAL&GENSTR TAPKIR  NAGAR,0,0,0,
583,SWASTIK MEDICAL STORES,FERNS MEDICALS,VALLABHNAGAR,PUNE,PCMC,
584,SWASTIK MEDICAL STORES,NAKSHATRA MEDICAL,PIMPLE GURAV,0,,
585,SWASTIK MEDICAL STORES,SHREE KARTIK MEDICO,GURUDWARA ROAD,WALHEKARWADI,,
586,SWASTIK MEDICAL STORES,VENKTESH MED & GEN STORES,BHOSARI,PHULE NAGAR,,
587,SWASTIK MEDICAL STORES,WELLCARE MEDICO,SHOP NO-5 RAHATANI,0,,
588,SWASTIK MEDICAL STORES,GANRAJ MEDICAL STORES,"PIMPLE GURAV, TULJA BHWANI NAG",AR,,
589,SWASTIK MEDICAL STORES,LIFECARE MEDICAL,PUNE-18.,9560000000,,
